start=new Date('2022-08-05T00:00:00.000Z').valueOf();
sats=[{"COUNTRY_CODE":"US","REV_AT_EPOCH":"10632","PERIAPSIS":"545.844","OBJECT_NAME":"STARLINK-1767","RA_OF_ASC_NODE":"153.4246","ELEMENT_SET_NO":"999","PERIOD":"95.592","TLE_LINE1":"1 46345U 20062W   22216.12461508 -.00000459  00000-0 -11894-4 0  9999","FILE":"3529060","NORAD_CAT_ID":"46345","MEAN_MOTION_DOT":"-0.00000459","APOAPSIS":"548.572","DECAY_DATE":null,"EPHEMERIS_TYPE":"0","CENTER_NAME":"EARTH","MEAN_MOTION_DDOT":"0.0000000000000","TLE_LINE2":"2 46345  53.0542 153.4246 0001969  67.0144 293.1052 15.06401814106329","MEAN_ELEMENT_THEORY":"SGP4","SITE":"AFETR","LAUNCH_DATE":"2020-09-03","ECCENTRICITY":"0.00019690","TIME_SYSTEM":"UTC","SEMIMAJOR_AXIS":"6925.343","MEAN_ANOMALY":"293.1052","EPOCH":"2022-08-04T02:59:26.742912","ARG_OF_PERICENTER":"67.0144","MEAN_MOTION":"15.06401814","BSTAR":"-0.00001189400000","OBJECT_TYPE":"PAYLOAD","INCLINATION":"53.0542","CLASSIFICATION_TYPE":"U","REF_FRAME":"TEME","OBJECT_ID":"2020-062W","GP_ID":"209556648","RCS_SIZE":"LARGE"},{"PERIAPSIS":"462.107","COUNTRY_CODE":"US","REV_AT_EPOCH":"10876","OBJECT_NAME":"STARLINK-1546","RA_OF_ASC_NODE":"344.6918","ELEMENT_SET_NO":"999","PERIOD":"93.856","FILE":"3529274","TLE_LINE1":"1 46346U 20062X   22216.74470368 -.00004750  00000-0 -13007-3 0  9997","NORAD_CAT_ID":"46346","APOAPSIS":"464.086","DECAY_DATE":null,"MEAN_MOTION_DOT":"-0.00004750","CENTER_NAME":"EARTH","EPHEMERIS_TYPE":"0","MEAN_MOTION_DDOT":"0.0000000000000","MEAN_ELEMENT_THEORY":"SGP4","TLE_LINE2":"2 46346  53.0557 344.6918 0001446  79.3659 280.7505 15.34268369108765","LAUNCH_DATE":"2020-09-03","ECCENTRICITY":"0.00014460","SITE":"AFETR","SEMIMAJOR_AXIS":"6841.232","TIME_SYSTEM":"UTC","MEAN_ANOMALY":"280.7505","EPOCH":"2022-08-04T17:52:22.397952","ARG_OF_PERICENTER":"79.3659","MEAN_MOTION":"15.34268369","OBJECT_TYPE":"PAYLOAD","BSTAR":"-0.00013007000000","INCLINATION":"53.0557","CLASSIFICATION_TYPE":"U","OBJECT_ID":"2020-062X","REF_FRAME":"TEME","RCS_SIZE":"LARGE","GP_ID":"209587603"},{"ARG_OF_PERICENTER":"78.9239","MEAN_MOTION":"15.06392071","TIME_SYSTEM":"UTC","SEMIMAJOR_AXIS":"6925.373","EPOCH":"2022-08-04T19:31:22.166400","MEAN_ANOMALY":"281.1871","RCS_SIZE":"LARGE","GP_ID":"209586352","OBJECT_ID":"2020-062Y","REF_FRAME":"TEME","OBJECT_TYPE":"PAYLOAD","BSTAR":"0.00017770000000","CLASSIFICATION_TYPE":"U","INCLINATION":"53.0561","PERIOD":"95.593","FILE":"3529274","TLE_LINE1":"1 46347U 20062Y   22216.81345100  .00002366  00000-0  17770-3 0  9991","ELEMENT_SET_NO":"999","RA_OF_ASC_NODE":"105.3445","PERIAPSIS":"546.494","REV_AT_EPOCH":"10704","COUNTRY_CODE":"US","OBJECT_NAME":"STARLINK-1547","MEAN_ELEMENT_THEORY":"SGP4","TLE_LINE2":"2 46347  53.0561 105.3445 0001074  78.9239 281.1871 15.06392071107042","LAUNCH_DATE":"2020-09-03","ECCENTRICITY":"0.00010740","SITE":"AFETR","MEAN_MOTION_DDOT":"0.0000000000000","DECAY_DATE":null,"APOAPSIS":"547.982","MEAN_MOTION_DOT":"0.00002366","CENTER_NAME":"EARTH","EPHEMERIS_TYPE":"0","NORAD_CAT_ID":"46347"},{"CLASSIFICATION_TYPE":"U","INCLINATION":"53.0563","BSTAR":"0.00004445700000","OBJECT_TYPE":"PAYLOAD","OBJECT_ID":"2020-062Z","REF_FRAME":"TEME","GP_ID":"209587102","RCS_SIZE":"LARGE","MEAN_ANOMALY":"286.6183","EPOCH":"2022-08-04T18:58:51.154176","SEMIMAJOR_AXIS":"6925.355","TIME_SYSTEM":"UTC","MEAN_MOTION":"15.06397863","ARG_OF_PERICENTER":"73.5025","NORAD_CAT_ID":"46348","EPHEMERIS_TYPE":"0","CENTER_NAME":"EARTH","MEAN_MOTION_DOT":"0.00000381","DECAY_DATE":null,"APOAPSIS":"548.604","MEAN_MOTION_DDOT":"0.0000000000000","SITE":"AFETR","ECCENTRICITY":"0.00019980","LAUNCH_DATE":"2020-09-03","TLE_LINE2":"2 46348  53.0563 130.4427 0001998  73.5025 286.6183 15.06397863106705","MEAN_ELEMENT_THEORY":"SGP4","OBJECT_NAME":"STARLINK-1553","COUNTRY_CODE":"US","REV_AT_EPOCH":"10670","PERIAPSIS":"545.836","RA_OF_ASC_NODE":"130.4427","ELEMENT_SET_NO":"999","TLE_LINE1":"1 46348U 20062Z   22216.79086984  .00000381  00000-0  44457-4 0  9999","FILE":"3529274","PERIOD":"95.592"},{"SITE":"AFETR","ECCENTRICITY":"0.00016670","LAUNCH_DATE":"2020-09-03","TLE_LINE2":"2 46349  53.0548 105.4664 0001667  65.4625 294.6538 15.06393758107054","MEAN_ELEMENT_THEORY":"SGP4","MEAN_MOTION_DDOT":"0.0000000000000","EPHEMERIS_TYPE":"0","CENTER_NAME":"EARTH","MEAN_MOTION_DOT":"0.00000027","APOAPSIS":"548.387","DECAY_DATE":null,"NORAD_CAT_ID":"46349","TLE_LINE1":"1 46349U 20062AA  22216.78765299  .00000027  00000-0  20696-4 0  9998","FILE":"3529274","PERIOD":"95.593","ELEMENT_SET_NO":"999","RA_OF_ASC_NODE":"105.4664","OBJECT_NAME":"STARLINK-1575","COUNTRY_CODE":"US","REV_AT_EPOCH":"10705","PERIAPSIS":"546.078","GP_ID":"209587354","RCS_SIZE":"LARGE","REF_FRAME":"TEME","OBJECT_ID":"2020-062AA","CLASSIFICATION_TYPE":"U","INCLINATION":"53.0548","BSTAR":"0.00002069600000","OBJECT_TYPE":"PAYLOAD","MEAN_MOTION":"15.06393758","ARG_OF_PERICENTER":"65.4625","MEAN_ANOMALY":"294.6538","EPOCH":"2022-08-04T18:54:13.218336","TIME_SYSTEM":"UTC","SEMIMAJOR_AXIS":"6925.368"},{"RA_OF_ASC_NODE":"153.0187","COUNTRY_CODE":"US","REV_AT_EPOCH":"10634","PERIAPSIS":"545.868","OBJECT_NAME":"STARLINK-1617","PERIOD":"95.593","TLE_LINE1":"1 46350U 20062AB  22216.22140330 -.00000261  00000-0  14180-5 0  9995","FILE":"3529060","ELEMENT_SET_NO":"999","MEAN_MOTION_DOT":"-0.00000261","DECAY_DATE":null,"APOAPSIS":"548.598","EPHEMERIS_TYPE":"0","CENTER_NAME":"EARTH","NORAD_CAT_ID":"46350","TLE_LINE2":"2 46350  53.0548 153.0187 0001971  67.4402 292.6796 15.06393500106348","MEAN_ELEMENT_THEORY":"SGP4","SITE":"AFETR","ECCENTRICITY":"0.00019710","LAUNCH_DATE":"2020-09-03","MEAN_MOTION_DDOT":"0.0000000000000","TIME_SYSTEM":"UTC","SEMIMAJOR_AXIS":"6925.368","EPOCH":"2022-08-04T05:18:49.245120","MEAN_ANOMALY":"292.6796","ARG_OF_PERICENTER":"67.4402","MEAN_MOTION":"15.06393500","REF_FRAME":"TEME","OBJECT_ID":"2020-062AB","BSTAR":"0.00000141800000","OBJECT_TYPE":"PAYLOAD","CLASSIFICATION_TYPE":"U","INCLINATION":"53.0548","GP_ID":"209557398","RCS_SIZE":"LARGE"},{"NORAD_CAT_ID":"46351","CENTER_NAME":"EARTH","EPHEMERIS_TYPE":"0","DECAY_DATE":null,"APOAPSIS":"548.467","MEAN_MOTION_DOT":"0.00000429","MEAN_MOTION_DDOT":"0.0000000000000","LAUNCH_DATE":"2020-09-03","ECCENTRICITY":"0.00018180","SITE":"AFETR","MEAN_ELEMENT_THEORY":"SGP4","TLE_LINE2":"2 46351  53.0545 129.9862 0001818  73.2636 286.8552 15.06401735106730","OBJECT_NAME":"STARLINK-1646","PERIAPSIS":"545.949","REV_AT_EPOCH":"10673","COUNTRY_CODE":"US","RA_OF_ASC_NODE":"129.9862","ELEMENT_SET_NO":"999","FILE":"3529274","TLE_LINE1":"1 46351U 20062AC  22216.88944925  .00000429  00000-0  47727-4 0  9997","PERIOD":"95.592","INCLINATION":"53.0545","CLASSIFICATION_TYPE":"U","OBJECT_TYPE":"PAYLOAD","BSTAR":"0.00004772700000","REF_FRAME":"TEME","OBJECT_ID":"2020-062AC","RCS_SIZE":"LARGE","GP_ID":"209586852","MEAN_ANOMALY":"286.8552","EPOCH":"2022-08-04T21:20:48.415200","SEMIMAJOR_AXIS":"6925.343","TIME_SYSTEM":"UTC","MEAN_MOTION":"15.06401735","ARG_OF_PERICENTER":"73.2636"},{"ARG_OF_PERICENTER":"77.1953","MEAN_MOTION":"15.06393928","SEMIMAJOR_AXIS":"6925.367","TIME_SYSTEM":"UTC","MEAN_ANOMALY":"282.9214","EPOCH":"2022-08-04T05:00:14.768064","RCS_SIZE":"LARGE","GP_ID":"209556898","OBJECT_TYPE":"PAYLOAD","BSTAR":"0.00002750600000","INCLINATION":"53.0558","CLASSIFICATION_TYPE":"U","OBJECT_ID":"2020-062AD","REF_FRAME":"TEME","ELEMENT_SET_NO":"999","PERIOD":"95.593","FILE":"3529060","TLE_LINE1":"1 46352U 20062AD  22216.20850426  .00000128  00000-0  27506-4 0  9995","PERIAPSIS":"546.128","COUNTRY_CODE":"US","REV_AT_EPOCH":"10662","OBJECT_NAME":"STARLINK-1653","RA_OF_ASC_NODE":"133.0656","MEAN_MOTION_DDOT":"0.0000000000000","MEAN_ELEMENT_THEORY":"SGP4","TLE_LINE2":"2 46352  53.0558 133.0656 0001594  77.1953 282.9214 15.06393928106622","LAUNCH_DATE":"2020-09-03","ECCENTRICITY":"0.00015940","SITE":"AFETR","NORAD_CAT_ID":"46352","APOAPSIS":"548.336","DECAY_DATE":null,"MEAN_MOTION_DOT":"0.00000128","CENTER_NAME":"EARTH","EPHEMERIS_TYPE":"0"},{"PERIOD":"95.593","FILE":"3529274","TLE_LINE1":"1 46353U 20062AE  22216.80378235 -.00000065  00000-0  14567-4 0  9999","ELEMENT_SET_NO":"999","RA_OF_ASC_NODE":"150.4029","PERIAPSIS":"545.788","REV_AT_EPOCH":"10642","COUNTRY_CODE":"US","OBJECT_NAME":"STARLINK-1656","MEAN_ELEMENT_THEORY":"SGP4","TLE_LINE2":"2 46353  53.0540 150.4029 0002094  62.8340 297.2862 15.06391906106428","LAUNCH_DATE":"2020-09-03","ECCENTRICITY":"0.00020940","SITE":"AFETR","MEAN_MOTION_DDOT":"0.0000000000000","DECAY_DATE":null,"APOAPSIS":"548.689","MEAN_MOTION_DOT":"-0.00000065","CENTER_NAME":"EARTH","EPHEMERIS_TYPE":"0","NORAD_CAT_ID":"46353","ARG_OF_PERICENTER":"62.8340","MEAN_MOTION":"15.06391906","SEMIMAJOR_AXIS":"6925.373","TIME_SYSTEM":"UTC","MEAN_ANOMALY":"297.2862","EPOCH":"2022-08-04T19:17:26.795040","RCS_SIZE":"LARGE","GP_ID":"209587854","REF_FRAME":"TEME","OBJECT_ID":"2020-062AE","OBJECT_TYPE":"PAYLOAD","BSTAR":"0.00001456700000","INCLINATION":"53.0540","CLASSIFICATION_TYPE":"U"},{"SEMIMAJOR_AXIS":"6925.362","TIME_SYSTEM":"UTC","EPOCH":"2022-08-04T04:41:39.803712","MEAN_ANOMALY":"298.7552","ARG_OF_PERICENTER":"61.3656","MEAN_MOTION":"15.06395539","REF_FRAME":"TEME","OBJECT_ID":"2020-062AF","OBJECT_TYPE":"PAYLOAD","BSTAR":"-0.00004531300000","CLASSIFICATION_TYPE":"U","INCLINATION":"53.0543","RCS_SIZE":"LARGE","GP_ID":"209557898","RA_OF_ASC_NODE":"153.1129","PERIAPSIS":"545.721","REV_AT_EPOCH":"10633","COUNTRY_CODE":"US","OBJECT_NAME":"STARLINK-1657","PERIOD":"95.592","FILE":"3529060","TLE_LINE1":"1 46354U 20062AF  22216.19559958 -.00000957  00000-0 -45313-4 0  9999","ELEMENT_SET_NO":"999","APOAPSIS":"548.733","DECAY_DATE":null,"MEAN_MOTION_DOT":"-0.00000957","CENTER_NAME":"EARTH","EPHEMERIS_TYPE":"0","NORAD_CAT_ID":"46354","MEAN_ELEMENT_THEORY":"SGP4","TLE_LINE2":"2 46354  53.0543 153.1129 0002175  61.3656 298.7552 15.06395539106335","LAUNCH_DATE":"2020-09-03","ECCENTRICITY":"0.00021750","SITE":"AFETR","MEAN_MOTION_DDOT":"0.0000000000000"}];
